0 COSMOS 2251 DEB
1 34544U 93036UE  13281.74913046  .00000283  00000-0  29412-3 0  9073
2 34544 073.9204 169.2823 0400524 298.4425 116.1984 13.49984440228443
0 COSMOS 2251 DEB
1 34544U 93036UE  13283.39288433  .00000312  00000-0  32133-3 0  9089
2 34544 073.9202 166.6425 0400520 295.5040 184.7493 13.49986377228668
0 COSMOS 2251 DEB
1 34544U 93036UE  13286.35688721  .00000349  00000-0  35702-3 0  9100
2 34544 073.9197 161.8824 0400485 290.2065 189.6561 13.49987844229065
0 COSMOS 2251 DEB
1 34544U 93036UE  13288.35663318  .00000504  00000-0  50505-3 0  9119
2 34544 073.9192 158.6709 0400474 286.6317 188.3339 13.49990074229331
0 COSMOS 2251 DEB
1 34544U 93036UE  13289.59731372  .00000423  00000-0  42809-3 0  9121
2 34544 073.9190 156.6783 0400460 284.4144 097.9936 13.49991402229501
0 COSMOS 2251 DEB
1 34544U 93036UE  13290.63635319  .00000419  00000-0  42414-3 0  9130
2 34544 073.9188 155.0095 0400444 282.5580 107.6892 13.49992437229646
0 COSMOS 2251 DEB
1 34544U 93036UE  13292.06406911  .00000469  00000-0  47175-3 0  9148
2 34544 073.9188 152.7165 0400425 280.0074 206.3484 13.49993236229831
0 COSMOS 2251 DEB
1 34544U 93036UE  13293.59928012  .00000450  00000-0  45365-3 0  9158
2 34544 073.9187 150.2507 0400411 277.2641 107.4347 13.49995007230048
0 COSMOS 2251 DEB
1 34544U 93036UE  13295.03425512  .00000503  00000-0  50401-3 0  9163
2 34544 073.9186 147.9459 0400399 274.7003 241.3854 13.49996131230236
